{
  "type": "FeatureCollection",
  "features": [
    {
      "type": "Feature",
      "properties": {
        "norad_id": 41890,
        "name": "CYGFM07",
        "group": "weather",
        "lat": -31.982836067136947,
        "lon": 172.58371341626145,
        "alt_km": 416.58161064304113,
        "timestamp": "2025-12-26T19:22:38.536944+00:00",
        "meta_object_name": "CYGFM07",
        "meta_object_id": "2016-078G",
        "meta_epoch": "2025-12-26T12:08:00.126528",
        "meta_mean_motion": 15.50595573,
        "meta_eccentricity": 0.00090832,
        "meta_inclination": 34.9475,
        "meta_ra_of_asc_node": 291.1596,
        "meta_arg_of_pericenter": 332.0459,
        "meta_mean_anomaly": 27.9775,
        "meta_ephemeris_type": 0,
        "meta_classification_type": "U",
        "meta_norad_cat_id": 41890,
        "meta_element_set_no": 999,
        "meta_rev_at_epoch": 50209,
        "meta_bstar": 0.00039275292,
        "meta_mean_motion_dot": 0.00023249,
        "meta_mean_motion_ddot": 0,
        "tle_line1": "1 41890U 16078G   25360.50555702  .00023249  00000+0  39275-3 0  9997",
        "tle_line2": "2 41890  34.9475 291.1596 0009083 332.0459  27.9775 15.50595573502093"
      },
      "geometry": {
        "type": "Point",
        "coordinates": [
          172.58371341626145,
          -31.982836067136947
        ]
      }
    },
    {
      "type": "Feature",
      "properties": {
        "norad_id": 41891,
        "name": "CYGFM03",
        "group": "weather",
        "lat": 33.95061706160827,
        "lon": 5.737808623773084,
        "alt_km": 411.5764243114081,
        "timestamp": "2025-12-26T19:22:38.536955+00:00",
        "meta_object_name": "CYGFM03",
        "meta_object_id": "2016-078H",
        "meta_epoch": "2025-12-26T05:08:17.982528",
        "meta_mean_motion": 15.50474136,
        "meta_eccentricity": 0.00090668,
        "meta_inclination": 34.943,
        "meta_ra_of_asc_node": 295.0003,
        "meta_arg_of_pericenter": 316.561,
        "meta_mean_anomaly": 43.4397,
        "meta_ephemeris_type": 0,
        "meta_classification_type": "U",
        "meta_norad_cat_id": 41891,
        "meta_element_set_no": 999,
        "meta_rev_at_epoch": 50202,
        "meta_bstar": 0.00038802061,
        "meta_mean_motion_dot": 0.00022868,
        "meta_mean_motion_ddot": 0,
        "tle_line1": "1 41891U 16078H   25360.21409702  .00022868  00000+0  38802-3 0  9995",
        "tle_line2": "2 41891  34.9430 295.0003 0009066 316.5610  43.4397 15.50474136502025"
      },
      "geometry": {
        "type": "Point",
        "coordinates": [
          5.737808623773084,
          33.95061706160827
        ]
      }
    },
    {
      "type": "Feature",
      "properties": {
        "norad_id": 43010,
        "name": "FENGYUN 3D",
        "group": "weather",
        "lat": -44.74527253041579,
        "lon": 138.3003056576455,
        "alt_km": 832.8953426256076,
        "timestamp": "2025-12-26T19:22:38.536966+00:00",
        "meta_object_name": "FENGYUN 3D",
        "meta_object_id": "2017-072A",
        "meta_epoch": "2025-12-26T14:56:10.501728",
        "meta_mean_motion": 14.1968714,
        "meta_eccentricity": 0.00016151,
        "meta_inclination": 98.9916,
        "meta_ra_of_asc_node": 327.1414,
        "meta_arg_of_pericenter": 144.6156,
        "meta_mean_anomaly": 215.5127,
        "meta_ephemeris_type": 0,
        "meta_classification_type": "U",
        "meta_norad_cat_id": 43010,
        "meta_element_set_no": 999,
        "meta_rev_at_epoch": 42050,
        "meta_bstar": 2.6162642e-05,
        "meta_mean_motion_dot": 9e-08,
        "meta_mean_motion_ddot": 0,
        "tle_line1": "1 43010U 17072A   25360.62234377  .00000009  00000+0  26163-4 0  9995",
        "tle_line2": "2 43010  98.9916 327.1414 0001615 144.6156 215.5127 14.19687140420509"
      },
      "geometry": {
        "type": "Point",
        "coordinates": [
          138.3003056576455,
          -44.74527253041579
        ]
      }
    },
    {
      "type": "Feature",
      "properties": {
        "norad_id": 43013,
        "name": "NOAA 20 (JPSS-1)",
        "group": "weather",
        "lat": 9.151606365661397,
        "lon": -64.47229266953207,
        "alt_km": 827.7944631427636,
        "timestamp": "2025-12-26T19:22:38.536977+00:00",
        "meta_object_name": "NOAA 20 (JPSS-1)",
        "meta_object_id": "2017-073A",
        "meta_epoch": "2025-12-26T14:15:32.122656",
        "meta_mean_motion": 14.1952945,
        "meta_eccentricity": 0.00020546,
        "meta_inclination": 98.7616,
        "meta_ra_of_asc_node": 296.7404,
        "meta_arg_of_pericenter": 67.5119,
        "meta_mean_anomaly": 292.6275,
        "meta_ephemeris_type": 0,
        "meta_classification_type": "U",
        "meta_norad_cat_id": 43013,
        "meta_element_set_no": 999,
        "meta_rev_at_epoch": 41998,
        "meta_bstar": 7.2866784e-05,
        "meta_mean_motion_dot": 1.1e-06,
        "meta_mean_motion_ddot": 0,
        "tle_line1": "1 43013U 17073A   25360.59412179  .00000110  00000+0  72867-4 0  9998",
        "tle_line2": "2 43013  98.7616 296.7404 0002054  67.5119 292.6275 14.19529450419986"
      },
      "geometry": {
        "type": "Point",
        "coordinates": [
          -64.47229266953207,
          9.151606365661397
        ]
      }
    },
    {
      "type": "Feature",
      "properties": {
        "norad_id": 43226,
        "name": "GOES 17",
        "group": "weather",
        "lat": -0.24659577339625754,
        "lon": -63.287877760332776,
        "alt_km": 35773.23524580546,
        "timestamp": "2025-12-26T19:22:38.536990+00:00",
        "meta_object_name": "GOES 17",
        "meta_object_id": "2018-022A",
        "meta_epoch": "2025-12-26T13:28:40.537056",
        "meta_mean_motion": 1.0027151,
        "meta_eccentricity": 0.00031962,
        "meta_inclination": 0.4913,
        "meta_ra_of_asc_node": 89.0151,
        "meta_arg_of_pericenter": 191.2344,
        "meta_mean_anomaly": 287.726,
        "meta_ephemeris_type": 0,
        "meta_classification_type": "U",
        "meta_norad_cat_id": 43226,
        "meta_element_set_no": 999,
        "meta_rev_at_epoch": 2869,
        "meta_bstar": 0,
        "meta_mean_motion_dot": -1.61e-06,
        "meta_mean_motion_ddot": 0,
        "tle_line1": "1 43226U 18022A   25360.56158029 -.00000161  00000+0  00000+0 0  9999",
        "tle_line2": "2 43226   0.4913  89.0151 0003196 191.2344 287.7260  1.00271510 28697"
      },
      "geometry": {
        "type": "Point",
        "coordinates": [
          -63.287877760332776,
          -0.24659577339625754
        ]
      }
    },
    {
      "type": "Feature",
      "properties": {
        "norad_id": 43491,
        "name": "FENGYUN 2H",
        "group": "weather",
        "lat": 1.0833057919167703,
        "lon": 105.4901196265455,
        "alt_km": 35794.63472888711,
        "timestamp": "2025-12-26T19:22:38.537003+00:00",
        "meta_object_name": "FENGYUN 2H",
        "meta_object_id": "2018-050A",
        "meta_epoch": "2025-12-26T15:38:10.430304",
        "meta_mean_motion": 1.00270166,
        "meta_eccentricity": 0.00024589,
        "meta_inclination": 2.5845,
        "meta_ra_of_asc_node": 81.1822,
        "meta_arg_of_pericenter": 166.5562,
        "meta_mean_anomaly": 161.5272,
        "meta_ephemeris_type": 0,
        "meta_classification_type": "U",
        "meta_norad_cat_id": 43491,
        "meta_element_set_no": 999,
        "meta_rev_at_epoch": 2770,
        "meta_bstar": 0,
        "meta_mean_motion_dot": -1.08e-06,
        "meta_mean_motion_ddot": 0,
        "tle_line1": "1 43491U 18050A   25360.65150961 -.00000108  00000+0  00000+0 0  9992",
        "tle_line2": "2 43491   2.5845  81.1822 0002458 166.5562 161.5272  1.00270166 27702"
      },
      "geometry": {
        "type": "Point",
        "coordinates": [
          105.4901196265455,
          1.0833057919167703
        ]
      }
    },
    {
      "type": "Feature",
      "properties": {
        "norad_id": 43689,
        "name": "METOP-C",
        "group": "weather",
        "lat": -67.77526195377031,
        "lon": -143.62413209115027,
        "alt_km": 827.7619731801769,
        "timestamp": "2025-12-26T19:22:38.537014+00:00",
        "meta_object_name": "METOP-C",
        "meta_object_id": "2018-087A",
        "meta_epoch": "2025-12-26T14:49:43.783104",
        "meta_mean_motion": 14.2148962,
        "meta_eccentricity": 5.501e-05,
        "meta_inclination": 98.691,
        "meta_ra_of_asc_node": 58.1735,
        "meta_arg_of_pericenter": 12.7587,
        "meta_mean_anomaly": 347.3605,
        "meta_ephemeris_type": 0,
        "meta_classification_type": "U",
        "meta_norad_cat_id": 43689,
        "meta_element_set_no": 999,
        "meta_rev_at_epoch": 37031,
        "meta_bstar": 8.3688782e-05,
        "meta_mean_motion_dot": 1.39e-06,
        "meta_mean_motion_ddot": 0,
        "tle_line1": "1 43689U 18087A   25360.61786786  .00000139  00000+0  83689-4 0  9999",
        "tle_line2": "2 43689  98.6910  58.1735 0000550  12.7587 347.3605 14.21489620370313"
      },
      "geometry": {
        "type": "Point",
        "coordinates": [
          -143.62413209115027,
          -67.77526195377031
        ]
      }
    }
  ]
}